{
  "type": "FeatureCollection",
  "features": [
    {
      "type": "Feature",
      "properties": {
        "norad_id": 54741,
        "name": "GALAXY 35 (G-35)",
        "group": "intelsat",
        "lat": 0.017601480681666344,
        "lon": 119.02305478393184,
        "alt_km": 35795.56545389232,
        "timestamp": "2025-12-08T08:59:00.440153+00:00",
        "meta_object_name": "GALAXY 35 (G-35)",
        "meta_object_id": "2022-170A",
        "meta_epoch": "2025-12-07T21:45:11.865312",
        "meta_mean_motion": 1.00271061,
        "meta_eccentricity": 0.00026945,
        "meta_inclination": 0.0126,
        "meta_ra_of_asc_node": 59.6803,
        "meta_arg_of_pericenter": 203.6228,
        "meta_mean_anomaly": 46.8309,
        "meta_ephemeris_type": 0,
        "meta_classification_type": "U",
        "meta_norad_cat_id": 54741,
        "meta_element_set_no": 999,
        "meta_rev_at_epoch": 1097,
        "meta_bstar": 0,
        "meta_mean_motion_dot": -1.59e-06,
        "meta_mean_motion_ddot": 0,
        "tle_line1": "1 54741U 22170A   25341.90638733 -.00000159  00000+0  00000+0 0  9991",
        "tle_line2": "2 54741   0.0126  59.6803 0002694 203.6228  46.8309  1.00271061 10972"
      },
      "geometry": {
        "type": "Point",
        "coordinates": [
          119.02305478393184,
          0.017601480681666344
        ]
      }
    },
    {
      "type": "Feature",
      "properties": {
        "norad_id": 54742,
        "name": "GALAXY 36 (G-36)",
        "group": "intelsat",
        "lat": 0.02318160770843933,
        "lon": 123.12381420353898,
        "alt_km": 35788.65479436103,
        "timestamp": "2025-12-08T08:59:00.440165+00:00",
        "meta_object_name": "GALAXY 36 (G-36)",
        "meta_object_id": "2022-170B",
        "meta_epoch": "2025-12-07T21:46:19.257312",
        "meta_mean_motion": 1.00270916,
        "meta_eccentricity": 5.948e-05,
        "meta_inclination": 0.0084,
        "meta_ra_of_asc_node": 7.0465,
        "meta_arg_of_pericenter": 272.6879,
        "meta_mean_anomaly": 34.7668,
        "meta_ephemeris_type": 0,
        "meta_classification_type": "U",
        "meta_norad_cat_id": 54742,
        "meta_element_set_no": 999,
        "meta_rev_at_epoch": 1085,
        "meta_bstar": 0,
        "meta_mean_motion_dot": -1.82e-06,
        "meta_mean_motion_ddot": 0,
        "tle_line1": "1 54742U 22170B   25341.90716733 -.00000182  00000+0  00000+0 0  9995",
        "tle_line2": "2 54742   0.0084   7.0465 0000594 272.6879  34.7668  1.00270916 10851"
      },
      "geometry": {
        "type": "Point",
        "coordinates": [
          123.12381420353898,
          0.02318160770843933
        ]
      }
    },
    {
      "type": "Feature",
      "properties": {
        "norad_id": 57493,
        "name": "GALAXY 37 (G-37)",
        "group": "intelsat",
        "lat": 0.031848078577934244,
        "lon": 85.12928231157265,
        "alt_km": 35796.33549961658,
        "timestamp": "2025-12-08T08:59:00.440177+00:00",
        "meta_object_name": "GALAXY 37 (G-37)",
        "meta_object_id": "2023-112A",
        "meta_epoch": "2025-12-07T21:35:12.821280",
        "meta_mean_motion": 1.00270987,
        "meta_eccentricity": 0.00023815,
        "meta_inclination": 0.0097,
        "meta_ra_of_asc_node": 350.9346,
        "meta_arg_of_pericenter": 270.6921,
        "meta_mean_anomaly": 12.0943,
        "meta_ephemeris_type": 0,
        "meta_classification_type": "U",
        "meta_norad_cat_id": 57493,
        "meta_element_set_no": 999,
        "meta_rev_at_epoch": 862,
        "meta_bstar": 0,
        "meta_mean_motion_dot": 5.1e-07,
        "meta_mean_motion_ddot": 0,
        "tle_line1": "1 57493U 23112A   25341.89945395  .00000051  00000+0  00000+0 0  9998",
        "tle_line2": "2 57493   0.0097 350.9346 0002381 270.6921  12.0943  1.00270987  8626"
      },
      "geometry": {
        "type": "Point",
        "coordinates": [
          85.12928231157265,
          0.031848078577934244
        ]
      }
    }
  ]
}